{"fetched_at":"2026-03-30T06:02:59Z","count":15439,"tles":[{"name":"STARLINK-34656","line1":"1 65032U 25161T   26087.74276143  .00036558  00000+0  12399-2 0  9990","line2":"2 65032  53.1581 205.9370 0001216  67.3596 292.7533 15.30212490 38248","category":"Starlink"}]}